HAWK-11A                
1 62382U 24247F   26068.51231358  .00009457  00000+0  34106-3 0  9991
2 62382  44.9941 114.3328 0005466 327.3713  32.6832 15.28849427 67741
STARLINK-33851          
1 63683U 25085V   26068.23522365  .00029338  00000+0  10714-2 0  9995
2 63683  43.0038  33.1993 0001833 257.4057 102.6590 15.27579570 48800
